{
  "norad_id": 68732,
  "name": "STARLINK-37167",
  "history": [
    {
      "epoch": "2026-04-23T13:16:31.706400Z",
      "apogee_km": 328.2519172150405,
      "perigee_km": 326.6264855438267,
      "latitude_deg": 7.449178870683698e-05,
      "longitude_deg": -75.05814521582931,
      "height_km": 331.14025864126467,
      "semi_major_axis_km": 6705.576201379434,
      "eccentricity": 0.0001212,
      "inclination_deg": 97.2888,
      "raan_deg": 335.6727,
      "arg_perigee_deg": 130.361,
      "mean_anomaly_deg": 229.7765,
      "mean_motion_rev_day": 15.81060937
    }
  ]
}