STARLINK-37167          
1 68732U 26082E   26113.55314475 -.00719592  00000+0 -40298-2 0  9990
2 68732  97.2888 335.6727 0001212 130.3610 229.7765 15.81060937  1181
